{
  "type": "FeatureCollection",
  "features": [
    {
      "type": "Feature",
      "properties": {
        "norad_id": 34962,
        "name": "COSMOS 2251 DEB",
        "group": "cosmos-2251-debris",
        "lat": 15.198940243269854,
        "lon": 6.810553625479724,
        "alt_km": 747.7025051758374,
        "timestamp": "2025-12-13T20:38:51.403461+00:00",
        "meta_object_name": "COSMOS 2251 DEB",
        "meta_object_id": "1993-036AER",
        "meta_epoch": "2025-12-12T14:00:48.043296",
        "meta_mean_motion": 14.46516615,
        "meta_eccentricity": 0.00188041,
        "meta_inclination": 74.0299,
        "meta_ra_of_asc_node": 193.656,
        "meta_arg_of_pericenter": 306.6555,
        "meta_mean_anomaly": 53.2874,
        "meta_ephemeris_type": 0,
        "meta_classification_type": "U",
        "meta_norad_cat_id": 34962,
        "meta_element_set_no": 999,
        "meta_rev_at_epoch": 87576,
        "meta_bstar": 0.0006546576,
        "meta_mean_motion_dot": 2.336e-05,
        "meta_mean_motion_ddot": 0,
        "tle_line1": "1 34962U 93036AER 25346.58388939  .00002336  00000+0  65466-3 0  9991",
        "tle_line2": "2 34962  74.0299 193.6560 0018804 306.6555  53.2874 14.46516615875769"
      },
      "geometry": {
        "type": "Point",
        "coordinates": [
          6.810553625479724,
          15.198940243269854
        ]
      }
    },
    {
      "type": "Feature",
      "properties": {
        "norad_id": 34963,
        "name": "COSMOS 2251 DEB",
        "group": "cosmos-2251-debris",
        "lat": 71.62979170505706,
        "lon": 99.33392028397971,
        "alt_km": 742.4222949655814,
        "timestamp": "2025-12-13T20:38:51.403471+00:00",
        "meta_object_name": "COSMOS 2251 DEB",
        "meta_object_id": "1993-036AES",
        "meta_epoch": "2025-12-12T21:06:37.533312",
        "meta_mean_motion": 14.5108556,
        "meta_eccentricity": 0.00425092,
        "meta_inclination": 74.1719,
        "meta_ra_of_asc_node": 42.4827,
        "meta_arg_of_pericenter": 238.9907,
        "meta_mean_anomaly": 120.7077,
        "meta_ephemeris_type": 0,
        "meta_classification_type": "U",
        "meta_norad_cat_id": 34963,
        "meta_element_set_no": 999,
        "meta_rev_at_epoch": 86803,
        "meta_bstar": 0.0018603991,
        "meta_mean_motion_dot": 7.439e-05,
        "meta_mean_motion_ddot": 0,
        "tle_line1": "1 34963U 93036AES 25346.87960108  .00007439  00000+0  18604-2 0  9998",
        "tle_line2": "2 34963  74.1719  42.4827 0042509 238.9907 120.7077 14.51085560868035"
      },
      "geometry": {
        "type": "Point",
        "coordinates": [
          99.33392028397971,
          71.62979170505706
        ]
      }
    },
    {
      "type": "Feature",
      "properties": {
        "norad_id": 34964,
        "name": "COSMOS 2251 DEB",
        "group": "cosmos-2251-debris",
        "lat": -70.31043024692251,
        "lon": -140.66372764212147,
        "alt_km": 806.2173795548424,
        "timestamp": "2025-12-13T20:38:51.403481+00:00",
        "meta_object_name": "COSMOS 2251 DEB",
        "meta_object_id": "1993-036AET",
        "meta_epoch": "2025-12-12T17:42:31.829760",
        "meta_mean_motion": 14.00606472,
        "meta_eccentricity": 0.0212761,
        "meta_inclination": 73.9721,
        "meta_ra_of_asc_node": 347.8441,
        "meta_arg_of_pericenter": 206.277,
        "meta_mean_anomaly": 152.7449,
        "meta_ephemeris_type": 0,
        "meta_classification_type": "U",
        "meta_norad_cat_id": 34964,
        "meta_element_set_no": 999,
        "meta_rev_at_epoch": 84478,
        "meta_bstar": 0.0019398871,
        "meta_mean_motion_dot": 3.487e-05,
        "meta_mean_motion_ddot": 0,
        "tle_line1": "1 34964U 93036AET 25346.73786840  .00003487  00000+0  19399-2 0  9994",
        "tle_line2": "2 34964  73.9721 347.8441 0212761 206.2770 152.7449 14.00606472844784"
      },
      "geometry": {
        "type": "Point",
        "coordinates": [
          -140.66372764212147,
          -70.31043024692251
        ]
      }
    },
    {
      "type": "Feature",
      "properties": {
        "norad_id": 34965,
        "name": "COSMOS 2251 DEB",
        "group": "cosmos-2251-debris",
        "lat": 19.19339228468217,
        "lon": -59.34346297115153,
        "alt_km": 730.8457268476768,
        "timestamp": "2025-12-13T20:38:51.403491+00:00",
        "meta_object_name": "COSMOS 2251 DEB",
        "meta_object_id": "1993-036AEU",
        "meta_epoch": "2025-12-13T03:20:09.825504",
        "meta_mean_motion": 14.48709196,
        "meta_eccentricity": 0.00265546,
        "meta_inclination": 74.0514,
        "meta_ra_of_asc_node": 127.7194,
        "meta_arg_of_pericenter": 255.0904,
        "meta_mean_anomaly": 104.7315,
        "meta_ephemeris_type": 0,
        "meta_classification_type": "U",
        "meta_norad_cat_id": 34965,
        "meta_element_set_no": 999,
        "meta_rev_at_epoch": 87119,
        "meta_bstar": 0.00058289093,
        "meta_mean_motion_dot": 2.18e-05,
        "meta_mean_motion_ddot": 0,
        "tle_line1": "1 34965U 93036AEU 25347.13900261  .00002180  00000+0  58289-3 0  9996",
        "tle_line2": "2 34965  74.0514 127.7194 0026554 255.0904 104.7315 14.48709196871194"
      },
      "geometry": {
        "type": "Point",
        "coordinates": [
          -59.34346297115153,
          19.19339228468217
        ]
      }
    },
    {
      "type": "Feature",
      "properties": {
        "norad_id": 34967,
        "name": "COSMOS 2251 DEB",
        "group": "cosmos-2251-debris",
        "lat": 50.195527866530085,
        "lon": -88.08110784478643,
        "alt_km": 713.3401782798919,
        "timestamp": "2025-12-13T20:38:51.403502+00:00",
        "meta_object_name": "COSMOS 2251 DEB",
        "meta_object_id": "1993-036AEW",
        "meta_epoch": "2025-12-13T00:27:20.673792",
        "meta_mean_motion": 14.44269018,
        "meta_eccentricity": 0.00380101,
        "meta_inclination": 73.9933,
        "meta_ra_of_asc_node": 253.3374,
        "meta_arg_of_pericenter": 39.5345,
        "meta_mean_anomaly": 320.8573,
        "meta_ephemeris_type": 0,
        "meta_classification_type": "U",
        "meta_norad_cat_id": 34967,
        "meta_element_set_no": 999,
        "meta_rev_at_epoch": 64961,
        "meta_bstar": 0.0011451852,
        "meta_mean_motion_dot": 3.946e-05,
        "meta_mean_motion_ddot": 0,
        "tle_line1": "1 34967U 93036AEW 25347.01898928  .00003946  00000+0  11452-2 0  9992",
        "tle_line2": "2 34967  73.9933 253.3374 0038010  39.5345 320.8573 14.44269018649616"
      },
      "geometry": {
        "type": "Point",
        "coordinates": [
          -88.08110784478643,
          50.195527866530085
        ]
      }
    },
    {
      "type": "Feature",
      "properties": {
        "norad_id": 34968,
        "name": "COSMOS 2251 DEB",
        "group": "cosmos-2251-debris",
        "lat": -29.773812050522167,
        "lon": -124.4897672631765,
        "alt_km": 650.9318624327461,
        "timestamp": "2025-12-13T20:38:51.403512+00:00",
        "meta_object_name": "COSMOS 2251 DEB",
        "meta_object_id": "1993-036AEX",
        "meta_epoch": "2025-12-12T03:39:29.952000",
        "meta_mean_motion": 14.59405084,
        "meta_eccentricity": 0.00865843,
        "meta_inclination": 74.0388,
        "meta_ra_of_asc_node": 248.1884,
        "meta_arg_of_pericenter": 8.6879,
        "meta_mean_anomaly": 351.576,
        "meta_ephemeris_type": 0,
        "meta_classification_type": "U",
        "meta_norad_cat_id": 34968,
        "meta_element_set_no": 999,
        "meta_rev_at_epoch": 88469,
        "meta_bstar": 0.00026640789,
        "meta_mean_motion_dot": 1.298e-05,
        "meta_mean_motion_ddot": 0,
        "tle_line1": "1 34968U 93036AEX 25346.15243000  .00001298  00000+0  26641-3 0  9997",
        "tle_line2": "2 34968  74.0388 248.1884 0086584   8.6879 351.5760 14.59405084884698"
      },
      "geometry": {
        "type": "Point",
        "coordinates": [
          -124.4897672631765,
          -29.773812050522167
        ]
      }
    },
    {
      "type": "Feature",
      "properties": {
        "norad_id": 34969,
        "name": "COSMOS 2251 DEB",
        "group": "cosmos-2251-debris",
        "lat": -46.48192494740476,
        "lon": 3.5257907440742176,
        "alt_km": 839.1135404714478,
        "timestamp": "2025-12-13T20:38:51.403556+00:00",
        "meta_object_name": "COSMOS 2251 DEB",
        "meta_object_id": "1993-036AEY",
        "meta_epoch": "2025-12-12T19:44:01.430592",
        "meta_mean_motion": 14.3225634,
        "meta_eccentricity": 0.00736223,
        "meta_inclination": 74.0145,
        "meta_ra_of_asc_node": 22.9925,
        "meta_arg_of_pericenter": 156.2014,
        "meta_mean_anomaly": 204.2571,
        "meta_ephemeris_type": 0,
        "meta_classification_type": "U",
        "meta_norad_cat_id": 34969,
        "meta_element_set_no": 999,
        "meta_rev_at_epoch": 65138,
        "meta_bstar": 0.00040409386,
        "meta_mean_motion_dot": 1.097e-05,
        "meta_mean_motion_ddot": 0,
        "tle_line1": "1 34969U 93036AEY 25346.82223878  .00001097  00000+0  40409-3 0  9998",
        "tle_line2": "2 34969  74.0145  22.9925 0073622 156.2014 204.2571 14.32256340651386"
      },
      "geometry": {
        "type": "Point",
        "coordinates": [
          3.5257907440742176,
          -46.48192494740476
        ]
      }
    }
  ]
}